     2.100          NAVIGATION                              RINEX VERSION / TYPE
fic2rin                                 09/14/2011 01:07:19 PGM / RUN BY / DATE
                                                            END OF HEADER
 3 11  9 13 10  0  0.0  .767668709159D-03  .500222085975D-11  .000000000000D+00
     .730000000000D+02 -.778437500000D+02  .529950646000D-08 -.261992159196D+01
    -.396557152271D-05  .147848257329D-01  .529922544956D-05  .515367367935D+04
     .208800000000D+06  .173225998878D-06  .223310695634D+01 -.335276126862D-07
     .929418859763D+00  .258156250000D+03  .113339921246D+01 -.836534845034D-08
    -.421446126351D-09  .100000000000D+01  .165300000000D+04  .000000000000D+00
     .340000000000D+01  .000000000000D+00 -.465661287308D-08  .730000000000D+02
     .201606000000D+06  .400000000000D+01
 4 11  9 13 10  0  0.0  .229944474995D-03  .112549969344D-10  .000000000000D+00
     .770000000000D+02  .263125000000D+02  .464126475588D-08  .430504079880D+00
     .160560011864D-05  .977564265486D-02  .115893781185D-04  .515370994759D+04
     .208800000000D+06 -.115483999252D-06 -.287352487492D+01  .212341547012D-06
     .938453625309D+00  .145125000000D+03  .762622544804D+00 -.814319633967D-08
     .121076471892D-09  .100000000000D+01  .165300000000D+04  .000000000000D+00
     .240000000000D+01  .000000000000D+00 -.651925802231D-08  .770000000000D+02
     .201606000000D+06  .400000000000D+01
 5 11  9 13 10  0  0.0 -.217583030462D-03 -.522959453519D-11  .000000000000D+00
     .100000000000D+02  .544062500000D+02  .497092134454D-08 -.737126837777D+00
     .287033617496D-05  .239283021074D-02  .374764204025D-05  .515374963760D+04
     .208800000000D+06  .149011611938D-07 -.182849477242D+01 -.130385160446D-07
     .952862217073D+00  .297625000000D+03  .148021524228D+00 -.848356766036D-08
     .400016662300D-09  .100000000000D+01  .165300000000D+04  .000000000000D+00
     .240000000000D+01  .000000000000D+00 -.102445483208D-07  .100000000000D+02
     .201606000000D+06  .400000000000D+01
 6 11  9 13 10  0  0.0 -.719819217920D-04  .920863385545D-11  .000000000000D+00
     .790000000000D+02 -.751250000000D+02  .516521515194D-08 -.629088779616D+00
    -.385940074921D-05  .666834670119D-02  .632554292679D-05  .515370508194D+04
     .208800000000D+06 -.111758708954D-06  .230765111301D+01 -.109896063805D-06
     .936536531146D+00  .246937500000D+03 -.688568879692D+00 -.852892669260D-08
    -.498949354672D-09  .100000000000D+01  .165300000000D+04  .000000000000D+00
     .240000000000D+01  .000000000000D+00 -.465661287308D-08  .790000000000D+02
     .201606000000D+06  .400000000000D+01
 7 11  9 13 10  0  0.0  .265385024250D-04  .181898940355D-11  .000000000000D+00
     .800000000000D+02  .101875000000D+02  .405731186047D-08  .200474360820D+01
     .713393092155D-06  .497729878407D-02  .127535313368D-04  .515364680290D+04
     .208800000000D+06 -.372529029846D-08  .278471045563D+00  .171363353729D-06
     .975379422891D+00  .142656250000D+03 -.308407414818D+01 -.776318051049D-08
     .142148778210D-09  .100000000000D+01  .165300000000D+04  .000000000000D+00
     .240000000000D+01  .000000000000D+00 -.107102096081D-07  .800000000000D+02
     .201606000000D+06  .400000000000D+01
 8 11  9 13 10  0  0.0  .911066308618D-05  .113686837722D-12  .000000000000D+00
     .180000000000D+02  .251562500000D+02  .362550815982D-08  .151448121926D+01
     .163167715073D-05  .120738107944D-01  .122096389532D-04  .515375577354D+04
     .208800000000D+06  .968575477600D-07  .356239293745D+00  .175088644028D-06
     .997197981459D+00  .163187500000D+03 -.303917417872D+01 -.757245828043D-08
     .514307137242D-10  .100000000000D+01  .165300000000D+04  .000000000000D+00
     .240000000000D+01  .000000000000D+00 -.419095158577D-08  .180000000000D+02
     .201606000000D+06  .400000000000D+01
 9 11  9 13 10  0  0.0  .105299055576D-03  .238742359215D-11  .000000000000D+00
     .900000000000D+02  .615625000000D+01  .386587531494D-08  .129936835988D+01
     .763684511185D-07  .172699976247D-01  .118408352137D-04  .515366448402D+04
     .208800000000D+06 -.184401869774D-06  .250850885975D+00 -.422820448875D-06
     .984254330989D+00  .165968750000D+03  .159935206638D+01 -.770353516888D-08
     .154292141173D-09  .100000000000D+01  .165300000000D+04  .000000000000D+00
     .240000000000D+01  .000000000000D+00 -.558793544769D-08  .900000000000D+02
     .201606000000D+06  .400000000000D+01
10 11  9 13 10  0  0.0 -.130156986415D-04 -.125055521494D-11  .000000000000D+00
     .400000000000D+02  .524687500000D+02  .522307470488D-08 -.500824906168D+00
     .294856727123D-05  .104034034302D-01  .381469726562D-05  .515362835503D+04
     .208800000000D+06  .465661287308D-07 -.180542562809D+01  .150874257088D-06
     .947776616438D+00  .298781250000D+03  .706847878709D+00 -.871929176493D-08
     .368586781690D-09  .100000000000D+01  .165300000000D+04  .000000000000D+00
     .340000000000D+01  .000000000000D+00 -.232830643654D-08  .400000000000D+02
     .201606000000D+06  .400000000000D+01
11 11  9 13 10  0  0.0 -.185493845493D-03 -.341060513165D-11  .000000000000D+00
     .820000000000D+02 -.173125000000D+02  .570630911925D-08  .217006651888D+01
    -.983476638794D-06  .122634440195D-01  .126399099827D-04  .515367979813D+04
     .208800000000D+06 -.540167093277D-07 -.313349648751D+01 -.294297933578D-06
     .888495812617D+00  .954687500000D+02  .968453368907D+00 -.850071123160D-08
    -.882179603464D-10  .100000000000D+01  .165300000000D+04  .000000000000D+00
     .240000000000D+01  .000000000000D+00 -.116415321827D-07  .820000000000D+02
     .201606000000D+06  .400000000000D+01
12 11  9 13 10  0  0.0  .220593065023D-04  .238742359215D-11  .000000000000D+00
     .510000000000D+02  .486562500000D+02  .455983279248D-08  .179266183316D+01
     .256113708019D-05  .357969128527D-02  .445730984211D-05  .515366431808D+04
     .208800000000D+06  .372529029846D-07  .133363849887D+01  .104308128357D-06
     .976190627058D+00  .300312500000D+03 -.698947967474D-01 -.820319883902D-08
     .151792037033D-09  .100000000000D+01  .165300000000D+04  .000000000000D+00
     .240000000000D+01  .000000000000D+00 -.121071934700D-07  .510000000000D+02
     .201606000000D+06  .400000000000D+01
14 11  9 13 10  0  0.0  .171971507370D-03  .181898940355D-11  .000000000000D+00
     .150000000000D+02 -.780000000000D+02  .427410660512D-08 -.178461597537D+01
    -.396370887756D-05  .623688288033D-02  .715442001820D-05  .515370842361D+04
     .208800000000D+06  .651925802231D-07 -.719320119919D+00  .689178705215D-07
     .981508243575D+00  .249562500000D+03 -.209527122306D+01 -.789854329175D-08
    -.326799326789D-09  .100000000000D+01  .165300000000D+04  .000000000000D+00
     .240000000000D+01  .000000000000D+00 -.884756445885D-08  .150000000000D+02
     .201606000000D+06  .400000000000D+01
15 11  9 13 10  0  0.0 -.106503721327D-03  .159161572810D-11  .000000000000D+00
     .180000000000D+02 -.757500000000D+02  .505949646262D-08 -.210801785504D+01
    -.406801700592D-05  .363088655286D-02  .632740557194D-05  .515367763329D+04
     .208800000000D+06 -.689178705215D-07 -.798677040082D+00 -.119209289551D-06
     .948499182398D+00  .254437500000D+03 -.797480912910D-01 -.838534928346D-08
    -.320013329840D-09  .100000000000D+01  .165300000000D+04  .000000000000D+00
     .240000000000D+01  .000000000000D+00 -.102445483208D-07  .180000000000D+02
     .201606000000D+06  .400000000000D+01
16 11  9 13 10  0  0.0 -.197476707399D-03 -.216004991671D-11  .000000000000D+00
     .250000000000D+02  .422812500000D+02  .452911722734D-08 -.614697072852D+00
     .218488276005D-05  .625857431442D-02  .438839197159D-05  .515387372780D+04
     .208800000000D+06  .108033418655D-06  .135159302266D+01 -.894069671631D-07
     .977140419306D+00  .305281250000D+03 -.558661803992D-01 -.824212903204D-08
     .201079804352D-09  .100000000000D+01  .165300000000D+04  .000000000000D+00
     .240000000000D+01  .000000000000D+00 -.977888703346D-08  .250000000000D+02
     .201606000000D+06  .400000000000D+01
17 11  9 13 10  0  0.0  .175321009010D-03 -.159161572810D-11  .000000000000D+00
     .110000000000D+03 -.745625000000D+02  .455304679553D-08 -.148403016690D+01
    -.388734042645D-05  .658624770585D-02  .700540840626D-05  .515357543373D+04
     .208800000000D+06  .219792127609D-06  .239410555140D+01 -.145286321640D-06
     .961777593874D+00  .248187500000D+03 -.240411714831D+01 -.807640784338D-08
    -.557166065346D-09  .100000000000D+01  .165300000000D+04  .000000000000D+00
     .340000000000D+01  .000000000000D+00 -.107102096081D-07  .110000000000D+03
     .201606000000D+06  .400000000000D+01
18 11  9 13 10  0  0.0  .157084316015D-03  .181898940355D-11  .000000000000D+00
     .560000000000D+02  .539375000000D+02  .561809115890D-08 -.168375360938D-01
     .289455056190D-05  .127732509281D-01  .360235571861D-05  .515362524986D+04
     .208800000000D+06 -.745058059692D-08 -.181268111952D+01  .242143869400D-06
     .931654837884D+00  .298531250000D+03 -.221702209891D+01 -.894715839935D-08
     .380730144653D-09  .100000000000D+01  .165300000000D+04  .000000000000D+00
     .240000000000D+01  .000000000000D+00 -.107102096081D-07  .560000000000D+02
     .201606000000D+06  .400000000000D+01
19 11  9 13 10  0  0.0 -.183331780136D-03 -.409272615798D-11  .000000000000D+00
     .950000000000D+02 -.769687500000D+02  .453304596242D-08 -.218448683594D+01
    -.396929681301D-05  .759132835083D-02  .793673098087D-05  .515370097923D+04
     .208800000000D+06 -.204890966415D-07  .244783544423D+01 -.540167093277D-07
     .959296129323D+00  .226281250000D+03  .978489302921D-01 -.810605193531D-08
    -.472162524607D-09  .100000000000D+01  .165300000000D+04  .000000000000D+00
     .340000000000D+01  .000000000000D+00 -.144354999065D-07  .950000000000D+02
     .201606000000D+06  .400000000000D+01
